$$SOE
2459580.500000000, A.D. 2022-Jan-01 00:00:00.0000, -2.898637359597890E+08, 3.988427728118966E+08, 1.379176695700496E+06,
2459587.500000000, A.D. 2022-Jan-08 00:00:00.0000, -2.981823254107409E+08, 3.937045977866144E+08, 7.514523579720557E+05,
2459594.500000000, A.D. 2022-Jan-15 00:00:00.0000, -3.063808112420548E+08, 3.884077679215165E+08, 1.234260826633275E+05,
2459601.500000000, A.D. 2022-Jan-22 00:00:00.0000, -3.144565004536874E+08, 3.829551959416311E+08, -5.046491632521152E+05,
2459608.500000000, A.D. 2022-Jan-29 00:00:00.0000, -3.224067721725145E+08, 3.773498267118883E+08, -1.132522792244077E+06,
2459615.500000000, A.D. 2022-Feb-05 00:00:00.0000, -3.302290793706174E+08, 3.715946348560255E+08, -1.759946493383527E+06,
2459622.500000000, A.D. 2022-Feb-12 00:00:00.0000, -3.379209483777011E+08, 3.656926213572928E+08, -2.386674410732731E+06,
2459629.500000000, A.D. 2022-Feb-19 00:00:00.0000, -3.454799775176396E+08, 3.596468115081486E+08, -3.012463288024262E+06,
2459636.500000000, A.D. 2022-Feb-26 00:00:00.0000, -3.529038361854470E+08, 3.534602534871006E+08, -3.637072518928617E+06,
2459643.500000000, A.D. 2022-Mar-05 00:00:00.0000, -3.601902642085189E+08, 3.471360169468720E+08, -4.260264168440506E+06,
2459650.500000000, A.D. 2022-Mar-12 00:00:00.0000, -3.673370712726519E+08, 3.406771915485967E+08, -4.881802991584405E+06,
2459657.500000000, A.D. 2022-Mar-19 00:00:00.0000, -3.743421363437166E+08, 3.340868854701266E+08, -5.501456454144567E+06,
2459664.500000000, A.D. 2022-Mar-26 00:00:00.0000, -3.812034070642514E+08, 3.273682238821960E+08, -6.118994758403048E+06,
2459671.500000000, A.D. 2022-Apr-02 00:00:00.0000, -3.879188990586825E+08, 3.205243473359779E+08, -6.734190885064632E+06,
2459678.500000000, A.D. 2022-Apr-09 00:00:00.0000, -3.944866948765244E+08, 3.135584100659512E+08, -7.346820676258817E+06,
2459685.500000000, A.D. 2022-Apr-16 00:00:00.0000, -4.009049422178773E+08, 3.064735788609661E+08, -7.956662939204141E+06,
2459692.500000000, A.D. 2022-Apr-23 00:00:00.0000, -4.071718527121212E+08, 2.992730335866353E+08, -8.563499365823403E+06,
2459699.500000000, A.D. 2022-Apr-30 00:00:00.0000, -4.132857031223110E+08, 2.919599671135921E+08, -9.167114280603901E+06,
2459706.500000000, A.D. 2022-May-07 00:00:00.0000, -4.192448359130363E+08, 2.845375826776487E+08, -9.767294659048960E+06,
2459713.500000000, A.D. 2022-May-14 00:00:00.0000, -4.250476577924343E+08, 2.770090917076257E+08, -1.036383029579757E+07,
2459720.500000000, A.D. 2022-May-21 00:00:00.0000, -4.306926382617025E+08, 2.693777128777726E+08, -1.095651387425645E+07,
2459727.500000000, A.D. 2022-May-28 00:00:00.0000, -4.361783086530929E+08, 2.616466714256317E+08, -1.154514097241475E+07,
2459734.500000000, A.D. 2022-Jun-04 00:00:00.0000, -4.415032613803766E+08, 2.538191984219304E+08, -1.212951005591828E+07,
2459741.500000000, A.D. 2022-Jun-11 00:00:00.0000, -4.466661492579704E+08, 2.458985299936720E+08, -1.270942247152187E+07,
2459748.500000000, A.D. 2022-Jun-18 00:00:00.0000, -4.516656848509796E+08, 2.378879065126659E+08, -1.328468244339944E+07,
2459755.500000000, A.D. 2022-Jun-25 00:00:00.0000, -4.565006398276883E+08, 2.297905717153668E+08, -1.385509707772677E+07,
2459762.500000000, A.D. 2022-Jul-02 00:00:00.0000, -4.611698441813412E+08, 2.216097716873831E+08, -1.442047639318232E+07,
2459769.500000000, A.D. 2022-Jul-09 00:00:00.0000, -4.656721849316866E+08, 2.133487538886417E+08, -1.498063339863966E+07,
2459776.500000000, A.D. 2022-Jul-16 00:00:00.0000, -4.700066043621988E+08, 2.050107673007896E+08, -1.553538412441135E+07,
2459783.500000000, A.D. 2022-Jul-23 00:00:00.0000, -4.741720999928107E+08, 1.965990637733243E+08, -1.608454739901982E+07,
2459790.500000000, A.D. 2022-Jul-30 00:00:00.0000, -4.781677262058033E+08, 1.881168972141996E+08, -1.662794465331930E+07,
2459797.500000000, A.D. 2022-Aug-06 00:00:00.0000, -4.819925939259455E+08, 1.795675212726276E+08, -1.716540002885170E+07,
2459804.500000000, A.D. 2022-Aug-13 00:00:00.0000, -4.856458691775929E+08, 1.709541882665044E+08, -1.769674048946751E+07,
2459811.500000000, A.D. 2022-Aug-20 00:00:00.0000, -4.891267720895280E+08, 1.622801488493097E+08, -1.822179583332534E+07,
2459818.500000000, A.D. 2022-Aug-27 00:00:00.0000, -4.924345762810211E+08, 1.535486516892754E+08, -1.874039867090799E+07,
2459825.500000000, A.D. 2022-Sep-03 00:00:00.0000, -4.955686083820207E+08, 1.447629430497851E+08, -1.925238440078093E+07,
2459832.500000000, A.D. 2022-Sep-10 00:00:00.0000, -4.985282475978118E+08, 1.359262662942753E+08, -1.975759118935590E+07,
2459839.500000000, A.D. 2022-Sep-17 00:00:00.0000, -5.013129252889173E+08, 1.270418613132640E+08, -2.025585995750473E+07,
2459846.500000000, A.D. 2022-Sep-24 00:00:00.0000, -5.039221245055745E+08, 1.181129638219721E+08, -2.074703438374862E+07,
2459853.500000000, A.D. 2022-Oct-01 00:00:00.0000, -5.063553792360961E+08, 1.091428045053241E+08, -2.123096094788120E+07,
2459860.500000000, A.D. 2022-Oct-08 00:00:00.0000, -5.086122729608796E+08, 1.001346085309124E+08, -2.170748900975306E+07,
2459867.500000000, A.D. 2022-Oct-15 00:00:00.0000, -5.106924374435012E+08, 9.109159662696464E+07, -2.217647073989715E+07,
2459874.500000000, A.D. 2022-Oct-22 00:00:00.0000, -5.125955539417601E+08, 8.201698603929777E+07, -2.263776083993235E+07,
2459881.500000000, A.D. 2022-Oct-29 00:00:00.0000, -5.143213543430427E+08, 7.291398877305809E+07, -2.309121649438529E+07,
2459888.500000000, A.D. 2022-Nov-05 00:00:00.0000, -5.158696201250989E+08, 6.378580986033381E+07, -2.353669752281061E+07,
2459895.500000000, A.D. 2022-Nov-12 00:00:00.0000, -5.172401811068444E+08, 5.463564691993254E+07, -2.397406644866260E+07,
2459902.500000000, A.D. 2022-Nov-19 00:00:00.0000, -5.184329147093221E+08, 4.546669005422200E+07, -2.440318849728145E+07,
2459909.500000000, A.D. 2022-Nov-26 00:00:00.0000, -5.194477454653003E+08, 3.628212168528917E+07, -2.482393157981538E+07,
2459916.500000000, A.D. 2022-Dec-03 00:00:00.0000, -5.202846446114969E+08, 2.708511631846694E+07, -2.523616627937049E+07,
2459923.500000000, A.D. 2022-Dec-10 00:00:00.0000, -5.209436297176147E+08, 1.787884025120197E+07, -2.563976584205945E+07,
2459930.500000000, A.D. 2022-Dec-17 00:00:00.0000, -5.214247643272205E+08, 8.666451201380316E+06, -2.603460617725115E+07,
2459937.500000000, A.D. 2022-Dec-24 00:00:00.0000, -5.217281575009193E+08, -5.489022116373125E+05, -2.642056588241207E+07,
2459944.500000000, A.D. 2022-Dec-31 00:00:00.0000, -5.218539629040197E+08, -9.764081026624706E+06, -2.679752631651162E+07,
2459951.500000000, A.D. 2023-Jan-07 00:00:00.0000, -5.218023773156545E+08, -1.897595557925044E+07, -2.716537165452648E+07,
2459958.500000000, A.D. 2023-Jan-14 00:00:00.0000, -5.215736405261641E+08, -2.818140372436325E+07, -2.752398870198178E+07,
2459965.500000000, A.D. 2023-Jan-21 00:00:00.0000, -5.211680372682580E+08, -3.737731081564681E+07, -2.787326666977005E+07,
2459972.500000000, A.D. 2023-Jan-28 00:00:00.0000, -5.205858975148242E+08, -4.656057163844104E+07, -2.821309726171295E+07,
2459979.500000000, A.D. 2023-Feb-04 00:00:00.0000, -5.198275953511567E+08, -5.572809126807848E+07, -2.854337480807628E+07,
2459986.500000000, A.D. 2023-Feb-11 00:00:00.0000, -5.188935482158365E+08, -6.487678504835147E+07, -2.886399629599633E+07,
2459993.500000000, A.D. 2023-Feb-18 00:00:00.0000, -5.177842165736391E+08, -7.400357851448926E+07, -2.917486135829210E+07,
2460000.500000000, A.D. 2023-Feb-25 00:00:00.0000, -5.165001037581378E+08, -8.310540742307049E+07, -2.947587225799314E+07,
2460007.500000000, A.D. 2023-Mar-04 00:00:00.0000, -5.150417558819284E+08, -9.217921787033170E+07, -2.976693387632370E+07,
2460014.500000000, A.D. 2023-Mar-11 00:00:00.0000, -5.134097617856217E+08, -1.012219664985897E+08, -3.004795370655412E+07,
2460021.500000000, A.D. 2023-Mar-18 00:00:00.0000, -5.116047529781524E+08, -1.102306208404983E+08, -3.031884186187431E+07,
2460028.500000000, A.D. 2023-Mar-25 00:00:00.0000, -5.096274033645988E+08, -1.192021598485861E+08, -3.057951111956294E+07,
2460035.500000000, A.D. 2023-Apr-01 00:00:00.0000, -5.074784283362944E+08, -1.281335742169105E+08, -3.082987700798070E+07,
2460042.500000000, A.D. 2023-Apr-08 00:00:00.0000, -5.051585838376294E+08, -1.370218652702748E+08, -3.106985777956229E+07,
2460049.500000000, A.D. 2023-Apr-15 00:00:00.0000, -5.026686677457668E+08, -1.458640435281942E+08, -3.129937414568711E+07,
2460056.500000000, A.D. 2023-Apr-22 00:00:00.0000, -5.000095217545109E+08, -1.546571299969206E+08, -3.151834918885024E+07,
2460063.500000000, A.D. 2023-Apr-29 00:00:00.0000, -4.971820310278943E+08, -1.633981579372287E+08, -3.172670851893520E+07,
2460070.500000000, A.D. 2023-May-06 00:00:00.0000, -4.941871233832205E+08, -1.720841733270508E+08, -3.192438036651222E+07,
2460077.500000000, A.D. 2023-May-13 00:00:00.0000, -4.910257689798363E+08, -1.807122349132916E+08, -3.211129559669639E+07,
2460084.500000000, A.D. 2023-May-20 00:00:00.0000, -4.876989802797619E+08, -1.892794143447704E+08, -3.228738770549188E+07,
2460091.500000000, A.D. 2023-May-27 00:00:00.0000, -4.842078120870844E+08, -1.977827964159878E+08, -3.245259281909225E+07,
2460098.500000000, A.D. 2023-Jun-03 00:00:00.0000, -4.805533616082726E+08, -2.062194793955514E+08, -3.260684969948922E+07,
2460105.500000000, A.D. 2023-Jun-10 00:00:00.0000, -4.767367685086130E+08, -2.145865754529921E+08, -3.275009975980632E+07,
2460112.500000000, A.D. 2023-Jun-17 00:00:00.0000, -4.727592148744982E+08, -2.228812112446412E+08, -3.288228710257161E+07,
2460119.500000000, A.D. 2023-Jun-24 00:00:00.0000, -4.686219247607349E+08, -2.311005286040982E+08, -3.300335860597451E+07,
2460126.500000000, A.D. 2023-Jul-01 00:00:00.0000, -4.643261630694934E+08, -2.392416845104460E+08, -3.311326401396778E+07,
2460133.500000000, A.D. 2023-Jul-08 00:00:00.0000, -4.598732354348685E+08, -2.473018495132135E+08, -3.321195580980574E+07,
2460140.500000000, A.D. 2023-Jul-15 00:00:00.0000, -4.552644903901209E+08, -2.552782074450390E+08, -3.329938898750342E+07,
$$EOE